OBJECT_NAME,OBJECT_ID,EPOCH,MEAN_MOTION,ECCENTRICITY,INCLINATION,RA_OF_ASC_NODE,ARG_OF_PERICENTER,MEAN_ANOMALY,EPHEMERIS_TYPE,CLASSIFICATION_TYPE,NORAD_CAT_ID,ELEMENT_SET_NO,REV_AT_EPOCH,BSTAR,MEAN_MOTION_DOT,MEAN_MOTION_DDOT
STARLINK-31820,2024-088T,2026-03-09T11:00:27.813600,15.30186376,.0001205,53.1609,141.2066,67.9600,292.1529,0,U,59725,999,10364,.28884E-4,.496E-5,0
SL-3 R/B,1981-065B,2026-03-09T11:00:26.560800,15.33291495,.0011813,97.6337,110.7068,12.1207,348.0316,0,U,12586,999,43492,.3115E-3,.9961E-4,0
